{
  "type": "FeatureCollection",
  "features": [
    {
      "type": "Feature",
      "properties": {
        "norad_id": 33835,
        "name": "COSMOS 2251 DEB",
        "group": "cosmos-2251-debris",
        "lat": -26.202181128448707,
        "lon": -78.14528836671192,
        "alt_km": 672.3072833778024,
        "timestamp": "2025-12-16T13:52:37.914944+00:00",
        "meta_object_name": "COSMOS 2251 DEB",
        "meta_object_id": "1993-036CC",
        "meta_epoch": "2025-12-15T09:18:19.262016",
        "meta_mean_motion": 14.62281249,
        "meta_eccentricity": 0.00544618,
        "meta_inclination": 74.057,
        "meta_ra_of_asc_node": 96.0441,
        "meta_arg_of_pericenter": 148.831,
        "meta_mean_anomaly": 273.4087,
        "meta_ephemeris_type": 0,
        "meta_classification_type": "U",
        "meta_norad_cat_id": 33835,
        "meta_element_set_no": 999,
        "meta_rev_at_epoch": 88828,
        "meta_bstar": 0.00071750677,
        "meta_mean_motion_dot": 3.669e-05,
        "meta_mean_motion_ddot": 0,
        "tle_line1": "1 33835U 93036CC  25349.38772294  .00003669  00000+0  71751-3 0  9995",
        "tle_line2": "2 33835  74.0570  96.0441 0054461 148.8310 273.4087 14.62281249888280"
      },
      "geometry": {
        "type": "Point",
        "coordinates": [
          -78.14528836671192,
          -26.202181128448707
        ]
      }
    },
    {
      "type": "Feature",
      "properties": {
        "norad_id": 33836,
        "name": "COSMOS 2251 DEB",
        "group": "cosmos-2251-debris",
        "lat": 64.16538694851064,
        "lon": 35.02431647762081,
        "alt_km": 607.9948153932983,
        "timestamp": "2025-12-16T13:52:37.914954+00:00",
        "meta_object_name": "COSMOS 2251 DEB",
        "meta_object_id": "1993-036CD",
        "meta_epoch": "2025-12-15T19:48:39.845088",
        "meta_mean_motion": 14.79679286,
        "meta_eccentricity": 0.00225824,
        "meta_inclination": 73.9975,
        "meta_ra_of_asc_node": 252.8611,
        "meta_arg_of_pericenter": 104.8956,
        "meta_mean_anomaly": 317.4306,
        "meta_ephemeris_type": 0,
        "meta_classification_type": "U",
        "meta_norad_cat_id": 33836,
        "meta_element_set_no": 999,
        "meta_rev_at_epoch": 64134,
        "meta_bstar": 0.00077859046,
        "meta_mean_motion_dot": 5.841e-05,
        "meta_mean_motion_ddot": 0,
        "tle_line1": "1 33836U 93036CD  25349.82546117  .00005841  00000+0  77859-3 0  9997",
        "tle_line2": "2 33836  73.9975 252.8611 0022582 104.8956 317.4306 14.79679286641343"
      },
      "geometry": {
        "type": "Point",
        "coordinates": [
          35.02431647762081,
          64.16538694851064
        ]
      }
    },
    {
      "type": "Feature",
      "properties": {
        "norad_id": 33837,
        "name": "COSMOS 2251 DEB",
        "group": "cosmos-2251-debris",
        "lat": 47.31990776578952,
        "lon": 66.48566851226461,
        "alt_km": 738.4365575200227,
        "timestamp": "2025-12-16T13:52:37.914964+00:00",
        "meta_object_name": "COSMOS 2251 DEB",
        "meta_object_id": "1993-036CE",
        "meta_epoch": "2025-12-15T14:28:36.708096",
        "meta_mean_motion": 14.50707738,
        "meta_eccentricity": 0.0035894,
        "meta_inclination": 74.013,
        "meta_ra_of_asc_node": 50.2072,
        "meta_arg_of_pericenter": 271.4719,
        "meta_mean_anomaly": 88.233,
        "meta_ephemeris_type": 0,
        "meta_classification_type": "U",
        "meta_norad_cat_id": 33837,
        "meta_element_set_no": 999,
        "meta_rev_at_epoch": 88837,
        "meta_bstar": 0.00025503195,
        "meta_mean_motion_dot": 9.82e-06,
        "meta_mean_motion_ddot": 0,
        "tle_line1": "1 33837U 93036CE  25349.60320264  .00000982  00000+0  25503-3 0  9997",
        "tle_line2": "2 33837  74.0130  50.2072 0035894 271.4719  88.2330 14.50707738888377"
      },
      "geometry": {
        "type": "Point",
        "coordinates": [
          66.48566851226461,
          47.31990776578952
        ]
      }
    },
    {
      "type": "Feature",
      "properties": {
        "norad_id": 33838,
        "name": "COSMOS 2251 DEB",
        "group": "cosmos-2251-debris",
        "lat": -64.52923446375856,
        "lon": -0.4387757140053702,
        "alt_km": 718.8830077920929,
        "timestamp": "2025-12-16T13:52:37.914975+00:00",
        "meta_object_name": "COSMOS 2251 DEB",
        "meta_object_id": "1993-036CF",
        "meta_epoch": "2025-12-15T20:50:58.728192",
        "meta_mean_motion": 14.48373618,
        "meta_eccentricity": 0.00274506,
        "meta_inclination": 74.0362,
        "meta_ra_of_asc_node": 143.9535,
        "meta_arg_of_pericenter": 265.381,
        "meta_mean_anomaly": 246.7104,
        "meta_ephemeris_type": 0,
        "meta_classification_type": "U",
        "meta_norad_cat_id": 33838,
        "meta_element_set_no": 999,
        "meta_rev_at_epoch": 88614,
        "meta_bstar": 0.00033689006,
        "meta_mean_motion_dot": 1.239e-05,
        "meta_mean_motion_ddot": 0,
        "tle_line1": "1 33838U 93036CF  25349.86873528  .00001239  00000+0  33689-3 0  9992",
        "tle_line2": "2 33838  74.0362 143.9535 0027450 265.3810 246.7104 14.48373618886148"
      },
      "geometry": {
        "type": "Point",
        "coordinates": [
          -0.4387757140053702,
          -64.52923446375856
        ]
      }
    },
    {
      "type": "Feature",
      "properties": {
        "norad_id": 33839,
        "name": "COSMOS 2251 DEB",
        "group": "cosmos-2251-debris",
        "lat": 37.187015797225136,
        "lon": -148.35361767036417,
        "alt_km": 674.0839750504028,
        "timestamp": "2025-12-16T13:52:37.914985+00:00",
        "meta_object_name": "COSMOS 2251 DEB",
        "meta_object_id": "1993-036CG",
        "meta_epoch": "2025-12-15T23:31:16.633632",
        "meta_mean_motion": 14.64428379,
        "meta_eccentricity": 0.00852003,
        "meta_inclination": 74.0379,
        "meta_ra_of_asc_node": 200.2537,
        "meta_arg_of_pericenter": 311.5758,
        "meta_mean_anomaly": 174.3068,
        "meta_ephemeris_type": 0,
        "meta_classification_type": "U",
        "meta_norad_cat_id": 33839,
        "meta_element_set_no": 999,
        "meta_rev_at_epoch": 89627,
        "meta_bstar": 0.00020500092,
        "meta_mean_motion_dot": 1.109e-05,
        "meta_mean_motion_ddot": 0,
        "tle_line1": "1 33839U 93036CG  25349.98005363  .00001109  00000+0  20500-3 0  9994",
        "tle_line2": "2 33839  74.0379 200.2537 0085200 311.5758 174.3068 14.64428379896271"
      },
      "geometry": {
        "type": "Point",
        "coordinates": [
          -148.35361767036417,
          37.187015797225136
        ]
      }
    },
    {
      "type": "Feature",
      "properties": {
        "norad_id": 33841,
        "name": "COSMOS 2251 DEB",
        "group": "cosmos-2251-debris",
        "lat": 54.41832364095561,
        "lon": 67.39343147026283,
        "alt_km": 769.8224841584988,
        "timestamp": "2025-12-16T13:52:37.914995+00:00",
        "meta_object_name": "COSMOS 2251 DEB",
        "meta_object_id": "1993-036CJ",
        "meta_epoch": "2025-12-15T22:40:15.963744",
        "meta_mean_motion": 14.37865459,
        "meta_eccentricity": 0.00206761,
        "meta_inclination": 74.0377,
        "meta_ra_of_asc_node": 272.1412,
        "meta_arg_of_pericenter": 351.9906,
        "meta_mean_anomaly": 91.6743,
        "meta_ephemeris_type": 0,
        "meta_classification_type": "U",
        "meta_norad_cat_id": 33841,
        "meta_element_set_no": 999,
        "meta_rev_at_epoch": 88160,
        "meta_bstar": 0.00021925204,
        "meta_mean_motion_dot": 6.37e-06,
        "meta_mean_motion_ddot": 0,
        "tle_line1": "1 33841U 93036CJ  25349.94462921  .00000637  00000+0  21925-3 0  9997",
        "tle_line2": "2 33841  74.0377 272.1412 0020676 351.9906  91.6743 14.37865459881607"
      },
      "geometry": {
        "type": "Point",
        "coordinates": [
          67.39343147026283,
          54.41832364095561
        ]
      }
    },
    {
      "type": "Feature",
      "properties": {
        "norad_id": 33842,
        "name": "COSMOS 2251 DEB",
        "group": "cosmos-2251-debris",
        "lat": 72.94233217428035,
        "lon": -78.5410341213108,
        "alt_km": 761.4524887833659,
        "timestamp": "2025-12-16T13:52:37.915005+00:00",
        "meta_object_name": "COSMOS 2251 DEB",
        "meta_object_id": "1993-036CK",
        "meta_epoch": "2025-12-15T09:11:54.379392",
        "meta_mean_motion": 14.42702894,
        "meta_eccentricity": 0.00473723,
        "meta_inclination": 74.0324,
        "meta_ra_of_asc_node": 214.7451,
        "meta_arg_of_pericenter": 321.5332,
        "meta_mean_anomaly": 38.245,
        "meta_ephemeris_type": 0,
        "meta_classification_type": "U",
        "meta_norad_cat_id": 33842,
        "meta_element_set_no": 999,
        "meta_rev_at_epoch": 88375,
        "meta_bstar": 0.00029179963,
        "meta_mean_motion_dot": 9.57e-06,
        "meta_mean_motion_ddot": 0,
        "tle_line1": "1 33842U 93036CK  25349.38326828  .00000957  00000+0  29180-3 0  9997",
        "tle_line2": "2 33842  74.0324 214.7451 0047372 321.5332  38.2450 14.42702894883752"
      },
      "geometry": {
        "type": "Point",
        "coordinates": [
          -78.5410341213108,
          72.94233217428035
        ]
      }
    }
  ]
}